{"type": "FeatureCollection", "features": [ {"type": "Feature", "properties": {"norad_id": 66524, "name": "STARLINK-35687", "group": "last-30-days", "lat": 13.790624771050334, "lon": 89.73913986289392, "alt_km": 404.1821676332074, "timestamp": "2025-12-09T05:43:19.509276+00:00", "meta": {"OBJECT_NAME": "STARLINK-35687", "OBJECT_ID": "2025-265J", "EPOCH": "2025-12-08T20:00:01.999008", "MEAN_MOTION": 15.55361679, "ECCENTRICITY": 0.0001431, "INCLINATION": 43.0003, "RA_OF_ASC_NODE": 76.8509, "ARG_OF_PERICENTER": 278.3536, "MEAN_ANOMALY": 352.7037, "EPHEMERIS_TYPE": 0, "CLASSIFICATION_TYPE": "U", "NORAD_CAT_ID": 66524, "ELEMENT_SET_NO": 999, "REV_AT_EPOCH": 436, "BSTAR": -0.033145, "MEAN_MOTION_DOT": -0.02061769, "MEAN_MOTION_DDOT": 0}, "tle": {"line1": "1 66524U 25265J   25342.83335647 -.02061769  00000+0 -33145-1 0  9997", "line2": "2 66524  43.0003  76.8509 0001431 278.3536 352.7037 15.55361679  4361"}}, "geometry": {"type": "Point", "coordinates": [89.73913986289392, 13.790624771050334]}}, {"type": "Feature", "properties": {"norad_id": 66525, "name": "STARLINK-35975", "group": "last-30-days", "lat": 15.049253511800451, "lon": 91.23260861345203, "alt_km": 404.14697505705044, "timestamp": "2025-12-09T05:43:19.509285+00:00", "meta": {"OBJECT_NAME": "STARLINK-35975", "OBJECT_ID": "2025-265K", "EPOCH": "2025-12-08T20:00:01.999008", "MEAN_MOTION": 15.5536423, "ECCENTRICITY": 0.0001435, "INCLINATION": 43.0003, "RA_OF_ASC_NODE": 76.8461, "ARG_OF_PERICENTER": 273.5714, "MEAN_ANOMALY": 359.4055, "EPHEMERIS_TYPE": 0, "CLASSIFICATION_TYPE": "U", "NORAD_CAT_ID": 66525, "ELEMENT_SET_NO": 999, "REV_AT_EPOCH": 436, "BSTAR": -0.033227, "MEAN_MOTION_DOT": -0.020665, "MEAN_MOTION_DDOT": 0}, "tle": {"line1": "1 66525U 25265K   25342.83335647 -.02066500  00000+0 -33227-1 0  9997", "line2": "2 66525  43.0003  76.8461 0001435 273.5714 359.4055 15.55364230  4368"}}, "geometry": {"type": "Point", "coordinates": [91.23260861345203, 15.049253511800451]}}, {"type": "Feature", "properties": {"norad_id": 66526, "name": "STARLINK-35932", "group": "last-30-days", "lat": 16.295388546372337, "lon": 92.7409811992044, "alt_km": 403.8636834705585, "timestamp": "2025-12-09T05:43:19.509304+00:00", "meta": {"OBJECT_NAME": "STARLINK-35932", "OBJECT_ID": "2025-265L", "EPOCH": "2025-12-08T20:00:01.999008", "MEAN_MOTION": 15.5536169, "ECCENTRICITY": 0.0001502, "INCLINATION": 43.0003, "RA_OF_ASC_NODE": 76.8416, "ARG_OF_PERICENTER": 279.422, "MEAN_ANOMALY": 355.4706, "EPHEMERIS_TYPE": 0, "CLASSIFICATION_TYPE": "U", "NORAD_CAT_ID": 66526, "ELEMENT_SET_NO": 999, "REV_AT_EPOCH": 425, "BSTAR": -0.033165, "MEAN_MOTION_DOT": -0.02062973, "MEAN_MOTION_DDOT": 0}, "tle": {"line1": "1 66526U 25265L   25342.83335647 -.02062973  00000+0 -33165-1 0  9999", "line2": "2 66526  43.0003  76.8416 0001502 279.4220 355.4706 15.55361690  4255"}}, "geometry": {"type": "Point", "coordinates": [92.7409811992044, 16.295388546372337]}}, {"type": "Feature", "properties": {"norad_id": 66527, "name": "STARLINK-35935", "group": "last-30-days", "lat": 17.531664901537006, "lon": 94.26959176333263, "alt_km": 403.87285047621845, "timestamp": "2025-12-09T05:43:19.509314+00:00", "meta": {"OBJECT_NAME": "STARLINK-35935", "OBJECT_ID": "2025-265M", "EPOCH": "2025-12-08T20:00:01.999008", "MEAN_MOTION": 15.55363805, "ECCENTRICITY": 0.0001386, "INCLINATION": 43.0002, "RA_OF_ASC_NODE": 76.8367, "ARG_OF_PERICENTER": 271.2048, "MEAN_ANOMALY": 5.6054, "EPHEMERIS_TYPE": 0, "CLASSIFICATION_TYPE": "U", "NORAD_CAT_ID": 66527, "ELEMENT_SET_NO": 999, "REV_AT_EPOCH": 436, "BSTAR": -0.033195, "MEAN_MOTION_DOT": -0.02064685, "MEAN_MOTION_DDOT": 0}, "tle": {"line1": "1 66527U 25265M   25342.83335647 -.02064685  00000+0 -33195-1 0  9995", "line2": "2 66527  43.0002  76.8367 0001386 271.2048   5.6054 15.55363805  4360"}}, "geometry": {"type": "Point", "coordinates": [94.26959176333263, 17.531664901537006]}}, {"type": "Feature", "properties": {"norad_id": 66528, "name": "STARLINK-35928", "group": "last-30-days", "lat": 18.75575582476003, "lon": 95.81893832671952, "alt_km": 403.59190377341474, "timestamp": "2025-12-09T05:43:19.509325+00:00", "meta": {"OBJECT_NAME": "STARLINK-35928", "OBJECT_ID": "2025-265N", "EPOCH": "2025-12-08T20:00:01.999008", "MEAN_MOTION": 15.55364299, "ECCENTRICITY": 0.0001466, "INCLINATION": 43.0004, "RA_OF_ASC_NODE": 76.8321, "ARG_OF_PERICENTER": 277.6296, "MEAN_ANOMALY": 1.0957, "EPHEMERIS_TYPE": 0, "CLASSIFICATION_TYPE": "U", "NORAD_CAT_ID": 66528, "ELEMENT_SET_NO": 999, "REV_AT_EPOCH": 436, "BSTAR": -0.03321, "MEAN_MOTION_DOT": -0.02065606, "MEAN_MOTION_DDOT": 0}, "tle": {"line1": "1 66528U 25265N   25342.83335647 -.02065606  00000+0 -33210-1 0  9998", "line2": "2 66528  43.0004  76.8321 0001466 277.6296   1.0957 15.55364299  4367"}}, "geometry": {"type": "Point", "coordinates": [95.81893832671952, 18.75575582476003]}}, {"type": "Feature", "properties": {"norad_id": 66529, "name": "STARLINK-35933", "group": "last-30-days", "lat": 19.967471602219497, "lon": 97.3913443516709, "alt_km": 403.5172546975318, "timestamp": "2025-12-09T05:43:19.509334+00:00", "meta": {"OBJECT_NAME": "STARLINK-35933", "OBJECT_ID": "2025-265P", "EPOCH": "2025-12-08T20:00:01.999008", "MEAN_MOTION": 15.55363795, "ECCENTRICITY": 0.0001494, "INCLINATION": 43.0003, "RA_OF_ASC_NODE": 76.8269, "ARG_OF_PERICENTER": 274.5304, "MEAN_ANOMALY": 6.1123, "EPHEMERIS_TYPE": 0, "CLASSIFICATION_TYPE": "U", "NORAD_CAT_ID": 66529, "ELEMENT_SET_NO": 999, "REV_AT_EPOCH": 436, "BSTAR": -0.033178, "MEAN_MOTION_DOT": -0.02063827, "MEAN_MOTION_DDOT": 0}, "tle": {"line1": "1 66529U 25265P   25342.83335647 -.02063827  00000+0 -33178-1 0  9995", "line2": "2 66529  43.0003  76.8269 0001494 274.5304   6.1123 15.55363795  4366"}}, "geometry": {"type": "Point", "coordinates": [97.3913443516709, 19.967471602219497]}}, {"type": "Feature", "properties": {"norad_id": 66530, "name": "STARLINK-35961", "group": "last-30-days", "lat": 21.16445989791192, "lon": 98.98790391624033, "alt_km": 403.2789807992567, "timestamp": "2025-12-09T05:43:19.509345+00:00", "meta": {"OBJECT_NAME": "STARLINK-35961", "OBJECT_ID": "2025-265Q", "EPOCH": "2025-12-08T20:00:01.999008", "MEAN_MOTION": 15.55363027, "ECCENTRICITY": 0.0001528, "INCLINATION": 43.0004, "RA_OF_ASC_NODE": 76.8225, "ARG_OF_PERICENTER": 278.7127, "MEAN_ANOMALY": 3.8474, "EPHEMERIS_TYPE": 0, "CLASSIFICATION_TYPE": "U", "NORAD_CAT_ID": 66530, "ELEMENT_SET_NO": 999, "REV_AT_EPOCH": 436, "BSTAR": -0.033188, "MEAN_MOTION_DOT": -0.02064314, "MEAN_MOTION_DDOT": 0}, "tle": {"line1": "1 66530U 25265Q   25342.83335647 -.02064314  00000+0 -33188-1 0  9990", "line2": "2 66530  43.0004  76.8225 0001528 278.7127   3.8474 15.55363027  4369"}}, "geometry": {"type": "Point", "coordinates": [98.98790391624033, 21.16445989791192]}}, {"type": "Feature", "properties": {"norad_id": 66531, "name": "STARLINK-35960", "group": "last-30-days", "lat": 22.346629564263008, "lon": 100.61006161976302, "alt_km": 403.16996978568477, "timestamp": "2025-12-09T05:43:19.509355+00:00", "meta": {"OBJECT_NAME": "STARLINK-35960", "OBJECT_ID": "2025-265R", "EPOCH": "2025-12-08T20:00:01.999008", "MEAN_MOTION": 15.55364609, "ECCENTRICITY": 0.0001453, "INCLINATION": 43.0004, "RA_OF_ASC_NODE": 76.817, "ARG_OF_PERICENTER": 275.8514, "MEAN_ANOMALY": 8.6257, "EPHEMERIS_TYPE": 0, "CLASSIFICATION_TYPE": "U", "NORAD_CAT_ID": 66531, "ELEMENT_SET_NO": 999, "REV_AT_EPOCH": 436, "BSTAR": -0.033199, "MEAN_MOTION_DOT": -0.02064993, "MEAN_MOTION_DDOT": 0}, "tle": {"line1": "1 66531U 25265R   25342.83335647 -.02064993  00000+0 -33199-1 0  9996", "line2": "2 66531  43.0004  76.8170 0001453 275.8514   8.6257 15.55364609  4363"}}, "geometry": {"type": "Point", "coordinates": [100.61006161976302, 22.346629564263008]}}, {"type": "Feature", "properties": {"norad_id": 66532, "name": "STARLINK-35914", "group": "last-30-days", "lat": 23.51181633193516, "lon": 102.2612454507986, "alt_km": 402.9895564675662, "timestamp": "2025-12-09T05:43:19.509366+00:00", "meta": {"OBJECT_NAME": "STARLINK-35914", "OBJECT_ID": "2025-265S", "EPOCH": "2025-12-08T20:00:01.999008", "MEAN_MOTION": 15.55366744, "ECCENTRICITY": 0.0001511, "INCLINATION": 42.9998, "RA_OF_ASC_NODE": 76.8129, "ARG_OF_PERICENTER": 278.5077, "MEAN_ANOMALY": 7.8871, "EPHEMERIS_TYPE": 0, "CLASSIFICATION_TYPE": "U", "NORAD_CAT_ID": 66532, "ELEMENT_SET_NO": 999, "REV_AT_EPOCH": 436, "BSTAR": -0.033314, "MEAN_MOTION_DOT": -0.02071563, "MEAN_MOTION_DDOT": 0}, "tle": {"line1": "1 66532U 25265S   25342.83335647 -.02071563  00000+0 -33314-1 0  9997", "line2": "2 66532  42.9998  76.8129 0001511 278.5077   7.8871 15.55366744  4362"}}, "geometry": {"type": "Point", "coordinates": [102.2612454507986, 23.51181633193516]}}, {"type": "Feature", "properties": {"norad_id": 66533, "name": "STARLINK-35707", "group": "last-30-days", "lat": 24.658964296992885, "lon": 103.94002094096477, "alt_km": 402.86904707082704, "timestamp": "2025-12-09T05:43:19.509376+00:00", "meta": {"OBJECT_NAME": "STARLINK-35707", "OBJECT_ID": "2025-265T", "EPOCH": "2025-12-08T20:00:01.999008", "MEAN_MOTION": 15.55362724, "ECCENTRICITY": 0.0001443, "INCLINATION": 42.9996, "RA_OF_ASC_NODE": 76.8078, "ARG_OF_PERICENTER": 275.8847, "MEAN_ANOMALY": 12.4281, "EPHEMERIS_TYPE": 0, "CLASSIFICATION_TYPE": "U", "NORAD_CAT_ID": 66533, "ELEMENT_SET_NO": 999, "REV_AT_EPOCH": 436, "BSTAR": -0.033178, "MEAN_MOTION_DOT": -0.02063709, "MEAN_MOTION_DDOT": 0}, "tle": {"line1": "1 66533U 25265T   25342.83335647 -.02063709  00000+0 -33178-1 0  9999", "line2": "2 66533  42.9996  76.8078 0001443 275.8847  12.4281 15.55362724  4364"}}, "geometry": {"type": "Point", "coordinates": [103.94002094096477, 24.658964296992885]}}]}